[{"OBJECT_NAME":"STARLINK-30473","OBJECT_ID":"2023-146C","EPOCH":"2026-03-09T17:33:01.341792","MEAN_MOTION":15.0347199,"ECCENTRICITY":0.00010354,"INCLINATION":43.0019,"RA_OF_ASC_NODE":312.9655,"ARG_OF_PERICENTER":249.7613,"MEAN_ANOMALY":110.3119,"EPHEMERIS_TYPE":0,"CLASSIFICATION_TYPE":"U","NORAD_CAT_ID":57893,"ELEMENT_SET_NO":999,"REV_AT_EPOCH":13707,"BSTAR":0.0084839685,"MEAN_MOTION_DOT":0.00119304,"MEAN_MOTION_DDOT":0},{"OBJECT_NAME":"CZ-6A DEB","OBJECT_ID":"2022-151WD","EPOCH":"2026-03-09T18:15:50.585760","MEAN_MOTION":14.95909888,"ECCENTRICITY":0.00406186,"INCLINATION":98.6454,"RA_OF_ASC_NODE":143.7847,"ARG_OF_PERICENTER":193.5421,"MEAN_ANOMALY":166.4711,"EPHEMERIS_TYPE":0,"CLASSIFICATION_TYPE":"U","NORAD_CAT_ID":55212,"ELEMENT_SET_NO":999,"REV_AT_EPOCH":17107,"BSTAR":0.0046813987,"MEAN_MOTION_DOT":0.00053565,"MEAN_MOTION_DDOT":0}]
